{"type": "FeatureCollection", "features": [{"type": "Feature", "properties": {"norad_id": 26766, "name": "INTELSAT 10 (IS-10)", "group": "intelsat", "lat": -6.954042397703387, "lon": 7.794912820872978, "alt_km": 36118.91052065323, "timestamp": "2025-12-20T11:30:28.038320+00:00", "meta": {"OBJECT_NAME": "INTELSAT 10 (IS-10)", "OBJECT_ID": "2001-019A", "EPOCH": "2025-12-19T15:29:42.245376", "MEAN_MOTION": 0.99074952, "ECCENTRICITY": 0.00077634, "INCLINATION": 8.645, "RA_OF_ASC_NODE": 61.0877, "ARG_OF_PERICENTER": 228.9364, "MEAN_ANOMALY": 139.953, "EPHEMERIS_TYPE": 0, "CLASSIFICATION_TYPE": "U", "NORAD_CAT_ID": 26766, "ELEMENT_SET_NO": 999, "REV_AT_EPOCH": 4380, "BSTAR": 0, "MEAN_MOTION_DOT": -1.33e-06, "MEAN_MOTION_DDOT": 0}, "tle": {"line1": "1 26766U 01019A   25353.64562784 -.00000133  00000+0  00000+0 0  9994", "line2": "2 26766   8.6450  61.0877 0007763 228.9364 139.9530  0.99074952 43808"}}, "geometry": {"type": "Point", "coordinates": [7.794912820872978, -6.954042397703387]}}, {"type": "Feature", "properties": {"norad_id": 26900, "name": "INTELSAT 902 (IS-902)", "group": "intelsat", "lat": 3.7939229174872677, "lon": -148.10993950757788, "alt_km": 35774.642771074024, "timestamp": "2025-12-20T11:30:28.038344+00:00", "meta": {"OBJECT_NAME": "INTELSAT 902 (IS-902)", "OBJECT_ID": "2001-039A", "EPOCH": "2025-12-15T13:09:02.081664", "MEAN_MOTION": 1.0027087, "ECCENTRICITY": 0.00045028, "INCLINATION": 5.6536, "RA_OF_ASC_NODE": 74.0372, "ARG_OF_PERICENTER": 189.6359, "MEAN_ANOMALY": 327.9329, "EPHEMERIS_TYPE": 0, "CLASSIFICATION_TYPE": "U", "NORAD_CAT_ID": 26900, "ELEMENT_SET_NO": 999, "REV_AT_EPOCH": 8885, "BSTAR": 0, "MEAN_MOTION_DOT": -2.65e-06, "MEAN_MOTION_DDOT": 0}, "tle": {"line1": "1 26900U 01039A   25349.54794076 -.00000265  00000+0  00000+0 0  9997", "line2": "2 26900   5.6536  74.0372 0004502 189.6359 327.9329  1.00270870 88858"}}, "geometry": {"type": "Point", "coordinates": [-148.10993950757788, 3.7939229174872677]}}, {"type": "Feature", "properties": {"norad_id": 27380, "name": "INTELSAT 904 (IS-904)", "group": "intelsat", "lat": 2.292151137718258, "lon": -129.47223310701526, "alt_km": 35785.848412559826, "timestamp": "2025-12-20T11:30:28.038360+00:00", "meta": {"OBJECT_NAME": "INTELSAT 904 (IS-904)", "OBJECT_ID": "2002-007A", "EPOCH": "2025-12-20T00:12:38.707776", "MEAN_MOTION": 1.00271119, "ECCENTRICITY": 0.0001788, "INCLINATION": 6.4716, "RA_OF_ASC_NODE": 71.3489, "ARG_OF_PERICENTER": 248.0569, "MEAN_ANOMALY": 101.1022, "EPHEMERIS_TYPE": 0, "CLASSIFICATION_TYPE": "U", "NORAD_CAT_ID": 27380, "ELEMENT_SET_NO": 999, "REV_AT_EPOCH": 4996, "BSTAR": 0, "MEAN_MOTION_DOT": -2.07e-06, "MEAN_MOTION_DDOT": 0}, "tle": {"line1": "1 27380U 02007A   25354.00878134 -.00000207  00000+0  00000+0 0  9997", "line2": "2 27380   6.4716  71.3489 0001788 248.0569 101.1022  1.00271119 49963"}}, "geometry": {"type": "Point", "coordinates": [-129.47223310701526, 2.292151137718258]}}, {"type": "Feature", "properties": {"norad_id": 27426, "name": "DIRECTV 5 (TEMPO 1)", "group": "intelsat", "lat": 4.268933969433989, "lon": 151.7474112377759, "alt_km": 35795.53084524944, "timestamp": "2025-12-20T11:30:28.038374+00:00", "meta": {"OBJECT_NAME": "DIRECTV 5 (TEMPO 1)", "OBJECT_ID": "2002-023A", "EPOCH": "2025-12-20T00:59:06.911808", "MEAN_MOTION": 1.00272785, "ECCENTRICITY": 0.0003447, "INCLINATION": 4.4196, "RA_OF_ASC_NODE": 77.5684, "ARG_OF_PERICENTER": 209.2291, "MEAN_ANOMALY": 66.7541, "EPHEMERIS_TYPE": 0, "CLASSIFICATION_TYPE": "U", "NORAD_CAT_ID": 27426, "ELEMENT_SET_NO": 999, "REV_AT_EPOCH": 8632, "BSTAR": 0, "MEAN_MOTION_DOT": -3.7e-07, "MEAN_MOTION_DDOT": 0}, "tle": {"line1": "1 27426U 02023A   25354.04105222 -.00000037  00000+0  00000+0 0  9992", "line2": "2 27426   4.4196  77.5684 0003447 209.2291  66.7541  1.00272785 86327"}}, "geometry": {"type": "Point", "coordinates": [151.7474112377759, 4.268933969433989]}}, {"type": "Feature", "properties": {"norad_id": 27438, "name": "INTELSAT 905 (IS-905)", "group": "intelsat", "lat": 5.036774746397325, "lon": 124.53391606849543, "alt_km": 35794.68520395285, "timestamp": "2025-12-20T11:30:28.038386+00:00", "meta": {"OBJECT_NAME": "INTELSAT 905 (IS-905)", "OBJECT_ID": "2002-027A", "EPOCH": "2025-12-20T04:33:38.541024", "MEAN_MOTION": 1.00272501, "ECCENTRICITY": 0.0002647, "INCLINATION": 6.3031, "RA_OF_ASC_NODE": 71.9703, "ARG_OF_PERICENTER": 200.4216, "MEAN_ANOMALY": 107.837, "EPHEMERIS_TYPE": 0, "CLASSIFICATION_TYPE": "U", "NORAD_CAT_ID": 27438, "ELEMENT_SET_NO": 999, "REV_AT_EPOCH": 4956, "BSTAR": 0, "MEAN_MOTION_DOT": 1.13e-06, "MEAN_MOTION_DDOT": 0}, "tle": {"line1": "1 27438U 02027A   25354.19002941  .00000113  00000+0  00000+0 0  9993", "line2": "2 27438   6.3031  71.9703 0002647 200.4216 107.8370  1.00272501 49568"}}, "geometry": {"type": "Point", "coordinates": [124.53391606849543, 5.036774746397325]}}, {"type": "Feature", "properties": {"norad_id": 27445, "name": "GALAXY 3C (G-3C)", "group": "intelsat", "lat": 3.2839524485884684, "lon": 167.0626016564117, "alt_km": 35781.020879260446, "timestamp": "2025-12-20T11:30:28.038398+00:00", "meta": {"OBJECT_NAME": "GALAXY 3C (G-3C)", "OBJECT_ID": "2002-030A", "EPOCH": "2025-12-20T03:29:00.039840", "MEAN_MOTION": 1.00271829, "ECCENTRICITY": 0.0001118, "INCLINATION": 3.2813, "RA_OF_ASC_NODE": 80.4298, "ARG_OF_PERICENTER": 77.884, "MEAN_ANOMALY": 248.0601, "EPHEMERIS_TYPE": 0, "CLASSIFICATION_TYPE": "U", "NORAD_CAT_ID": 27445, "ELEMENT_SET_NO": 999, "REV_AT_EPOCH": 4469, "BSTAR": 0, "MEAN_MOTION_DOT": -1.31e-06, "MEAN_MOTION_DDOT": 0}, "tle": {"line1": "1 27445U 02030A   25354.14513935 -.00000131  00000+0  00000+0 0  9991", "line2": "2 27445   3.2813  80.4298 0001118  77.8840 248.0601  1.00271829 44691"}}, "geometry": {"type": "Point", "coordinates": [167.0626016564117, 3.2839524485884684]}}, {"type": "Feature", "properties": {"norad_id": 27513, "name": "INTELSAT 906 (IS-906)", "group": "intelsat", "lat": -5.073799110367977, "lon": -33.959808553525, "alt_km": 35770.18668981121, "timestamp": "2025-12-20T11:30:28.038411+00:00", "meta": {"OBJECT_NAME": "INTELSAT 906 (IS-906)", "OBJECT_ID": "2002-041A", "EPOCH": "2025-12-19T20:34:46.617600", "MEAN_MOTION": 1.00272721, "ECCENTRICITY": 0.00063182, "INCLINATION": 5.3475, "RA_OF_ASC_NODE": 75.1475, "ARG_OF_PERICENTER": 198.3862, "MEAN_ANOMALY": 187.9892, "EPHEMERIS_TYPE": 0, "CLASSIFICATION_TYPE": "U", "NORAD_CAT_ID": 27513, "ELEMENT_SET_NO": 999, "REV_AT_EPOCH": 8523, "BSTAR": 0, "MEAN_MOTION_DOT": 3.3e-07, "MEAN_MOTION_DDOT": 0}, "tle": {"line1": "1 27513U 02041A   25353.85748400  .00000033  00000+0  00000+0 0  9993", "line2": "2 27513   5.3475  75.1475 0006318 198.3862 187.9892  1.00272721 85232"}}, "geometry": {"type": "Point", "coordinates": [-33.959808553525, -5.073799110367977]}}, {"type": "Feature", "properties": {"norad_id": 27954, "name": "GALAXY 13 (HORIZONS-1)", "group": "intelsat", "lat": 0.43709879538589147, "lon": 111.8877909358298, "alt_km": 35795.52751463017, "timestamp": "2025-12-20T11:30:28.038434+00:00", "meta": {"OBJECT_NAME": "GALAXY 13 (HORIZONS-1)", "OBJECT_ID": "2003-044A", "EPOCH": "2025-12-20T00:32:02.156352", "MEAN_MOTION": 1.00269578, "ECCENTRICITY": 0.0002401, "INCLINATION": 0.9552, "RA_OF_ASC_NODE": 86.3774, "ARG_OF_PERICENTER": 176.8754, "MEAN_ANOMALY": 43.6047, "EPHEMERIS_TYPE": 0, "CLASSIFICATION_TYPE": "U", "NORAD_CAT_ID": 27954, "ELEMENT_SET_NO": 999, "REV_AT_EPOCH": 4477, "BSTAR": 0, "MEAN_MOTION_DOT": 1.56e-06, "MEAN_MOTION_DDOT": 0}, "tle": {"line1": "1 27954U 03044A   25354.02224718  .00000156  00000+0  00000+0 0  9993", "line2": "2 27954   0.9552  86.3774 0002401 176.8754  43.6047  1.00269578 44774"}}, "geometry": {"type": "Point", "coordinates": [111.8877909358298, 0.43709879538589147]}}, {"type": "Feature", "properties": {"norad_id": 28358, "name": "INTELSAT 10-02", "group": "intelsat", "lat": -0.021218083375066803, "lon": -99.05143004416523, "alt_km": 35783.55334780979, "timestamp": "2025-12-20T11:30:28.038462+00:00", "meta": {"OBJECT_NAME": "INTELSAT 10-02", "OBJECT_ID": "2004-022A", "EPOCH": "2025-12-20T01:14:28.091328", "MEAN_MOTION": 1.00270604, "ECCENTRICITY": 8.76e-05, "INCLINATION": 0.0204, "RA_OF_ASC_NODE": 70.0067, "ARG_OF_PERICENTER": 230.9375, "MEAN_ANOMALY": 165.6007, "EPHEMERIS_TYPE": 0, "CLASSIFICATION_TYPE": "U", "NORAD_CAT_ID": 28358, "ELEMENT_SET_NO": 999, "REV_AT_EPOCH": 7876, "BSTAR": 0, "MEAN_MOTION_DOT": 1.3e-07, "MEAN_MOTION_DDOT": 0}, "tle": {"line1": "1 28358U 04022A   25354.05171402  .00000013  00000+0  00000+0 0  9995", "line2": "2 28358   0.0204  70.0067 0000876 230.9375 165.6007  1.00270604 78767"}}, "geometry": {"type": "Point", "coordinates": [-99.05143004416523, -0.021218083375066803]}}, {"type": "Feature", "properties": {"norad_id": 28626, "name": "XM-3 (RHYTHM)", "group": "intelsat", "lat": -0.19539149260149322, "lon": -20.568865497678505, "alt_km": 36153.19653037684, "timestamp": "2025-12-20T11:30:28.038476+00:00", "meta": {"OBJECT_NAME": "XM-3 (RHYTHM)", "OBJECT_ID": "2005-008A", "EPOCH": "2025-12-20T03:20:05.476128", "MEAN_MOTION": 0.98949989, "ECCENTRICITY": 0.0001919, "INCLINATION": 0.193, "RA_OF_ASC_NODE": 81.965, "ARG_OF_PERICENTER": 278.2014, "MEAN_ANOMALY": 217.9729, "EPHEMERIS_TYPE": 0, "CLASSIFICATION_TYPE": "U", "NORAD_CAT_ID": 28626, "ELEMENT_SET_NO": 999, "REV_AT_EPOCH": 4082, "BSTAR": 0, "MEAN_MOTION_DOT": 6.8e-07, "MEAN_MOTION_DDOT": 0}, "tle": {"line1": "1 28626U 05008A   25354.13895227  .00000068  00000+0  00000+0 0  9995", "line2": "2 28626   0.1930  81.9650 0001919 278.2014 217.9729  0.98949989 40828"}}, "geometry": {"type": "Point", "coordinates": [-20.568865497678505, -0.19539149260149322]}}]}